IRIDIUM 166             
1 43570U 18061B   25219.40646408  .00000023  00000+0  12061-5 0  9995
2 43570  86.4009 187.8492 0002253  93.3081 266.8373 14.34217608368427
IRIDIUM 158             
1 43571U 18061C   25219.44451915  .00000028  00000+0  29735-5 0  9998
2 43571  86.4010 187.8431 0002109  85.1978 274.9459 14.34217697368396
IRIDIUM 165             
1 43572U 18061D   25219.60942522  .00000228  00000+0  74213-4 0  9998
2 43572  86.4011 187.8145 0002395  89.3781 270.7690 14.34219215368440
IRIDIUM 155             
1 43573U 18061E   25219.43183331  .00000030  00000+0  37150-5 0  9996
2 43573  86.4007 187.7736 0001974  89.7301 270.4121 14.34217732368386
IRIDIUM 154             
1 43574U 18061F   25219.41280648  .00000045  00000+0  90847-5 0  9992
2 43574  86.4012 187.8993 0002288  86.7723 273.3735 14.34217321368436
IRIDIUM 163             
1 43575U 18061G   25219.46354789  .00000218  00000+0  70757-4 0  9995
2 43575  86.4007 187.8035 0002207  82.4658 277.6788 14.34218819368415
IRIDIUM 156             
1 43576U 18061H   25219.43817658 -.00000021  00000+0 -14495-4 0  9993
2 43576  86.4011 187.8213 0001945  93.9133 266.2285 14.34217365368402
IRIDIUM 164             
1 43577U 18061J   25219.41914970  .00000067  00000+0  16739-4 0  9998
2 43577  86.4009 187.8642 0002436  90.7970 269.3505 14.34217827368442
